[{"OBJECT_NAME":"HST","OBJECT_ID":"1990-037B","EPOCH":"2026-03-06T02:13:50.589696","MEAN_MOTION":15.2941463,"ECCENTRICITY":0.00017959,"INCLINATION":28.4707,"RA_OF_ASC_NODE":64.5335,"ARG_OF_PERICENTER":90.2676,"MEAN_ANOMALY":269.8125,"EPHEMERIS_TYPE":0,"CLASSIFICATION_TYPE":"U","NORAD_CAT_ID":20580,"ELEMENT_SET_NO":999,"REV_AT_EPOCH":77276,"BSTAR":0.00027789618,"MEAN_MOTION_DOT":8.39e-5,"MEAN_MOTION_DDOT":0},{"OBJECT_NAME":"POLAR","OBJECT_ID":"1996-013A","EPOCH":"2026-03-05T01:22:01.692192","MEAN_MOTION":1.29845804,"ECCENTRICITY":0.63646509,"INCLINATION":79.7448,"RA_OF_ASC_NODE":228.2423,"ARG_OF_PERICENTER":212.6113,"MEAN_ANOMALY":83.8068,"EPHEMERIS_TYPE":0,"CLASSIFICATION_TYPE":"U","NORAD_CAT_ID":23802,"ELEMENT_SET_NO":999,"REV_AT_EPOCH":14350,"BSTAR":0,"MEAN_MOTION_DOT":1.71e-6,"MEAN_MOTION_DDOT":0},{"OBJECT_NAME":"SWAS","OBJECT_ID":"1998-071A","EPOCH":"2026-03-06T14:49:51.899520","MEAN_MOTION":15.08858438,"ECCENTRICITY":0.00038607,"INCLINATION":69.8956,"RA_OF_ASC_NODE":131.8799,"ARG_OF_PERICENTER":18.6787,"MEAN_ANOMALY":341.4518,"EPHEMERIS_TYPE":0,"CLASSIFICATION_TYPE":"U","NORAD_CAT_ID":25560,"ELEMENT_SET_NO":999,"REV_AT_EPOCH":48179,"BSTAR":0.00037042424,"MEAN_MOTION_DOT":5.747e-5,"MEAN_MOTION_DDOT":0},{"OBJECT_NAME":"CXO","OBJECT_ID":"1999-040B","EPOCH":"2026-03-07T05:51:16.436736","MEAN_MOTION":0.37807298,"ECCENTRICITY":0.79978948,"INCLINATION":54.5001,"RA_OF_ASC_NODE":119.7161,"ARG_OF_PERICENTER":310.7431,"MEAN_ANOMALY":0.4039,"EPHEMERIS_TYPE":0,"CLASSIFICATION_TYPE":"U","NORAD_CAT_ID":25867,"ELEMENT_SET_NO":999,"REV_AT_EPOCH":1694,"BSTAR":0,"MEAN_MOTION_DOT":8.3e-6,"MEAN_MOTION_DDOT":0},{"OBJECT_NAME":"XMM-NEWTON","OBJECT_ID":"1999-066A","EPOCH":"2026-03-08T14:59:42.229248","MEAN_MOTION":0.50132007,"ECCENTRICITY":0.47101526,"INCLINATION":64.9887,"RA_OF_ASC_NODE":284.2959,"ARG_OF_PERICENTER":66.6833,"MEAN_ANOMALY":359.9644,"EPHEMERIS_TYPE":0,"CLASSIFICATION_TYPE":"U","NORAD_CAT_ID":25989,"ELEMENT_SET_NO":999,"REV_AT_EPOCH":2250,"BSTAR":0,"MEAN_MOTION_DOT":9.7e-7,"MEAN_MOTION_DDOT":0},{"OBJECT_NAME":"TERRA","OBJECT_ID":"1999-068A","EPOCH":"2026-03-06T20:07:28.971264","MEAN_MOTION":14.61011205,"ECCENTRICITY":0.000253,"INCLINATION":97.9599,"RA_OF_ASC_NODE":119.3821,"ARG_OF_PERICENTER":158.2541,"MEAN_ANOMALY":261.4297,"EPHEMERIS_TYPE":0,"CLASSIFICATION_TYPE":"U","NORAD_CAT_ID":25994,"ELEMENT_SET_NO":999,"REV_AT_EPOCH":39466,"BSTAR":0.00012991,"MEAN_MOTION_DOT":5.93e-6,"MEAN_MOTION_DDOT":0},{"OBJECT_NAME":"CLUSTER II-FM7 (SAMBA)","OBJECT_ID":"2000-041A","EPOCH":"2026-03-04T06:04:28.507872","MEAN_MOTION":0.44785609,"ECCENTRICITY":0.89087774,"INCLINATION":148.992,"RA_OF_ASC_NODE":34.5676,"ARG_OF_PERICENTER":250.6745,"MEAN_ANOMALY":359.7226,"EPHEMERIS_TYPE":0,"CLASSIFICATION_TYPE":"U","NORAD_CAT_ID":26410,"ELEMENT_SET_NO":999,"REV_AT_EPOCH":1983,"BSTAR":0,"MEAN_MOTION_DOT":3.639e-5,"MEAN_MOTION_DDOT":0},{"OBJECT_NAME":"CLUSTER II-FM8 (TANGO)","OBJECT_ID":"2000-045B","EPOCH":"2026-02-18T01:30:32.809536","MEAN_MOTION":0.44405995,"ECCENTRICITY":0.88900451,"INCLINATION":149.0711,"RA_OF_ASC_NODE":33.5376,"ARG_OF_PERICENTER":249.457,"MEAN_ANOMALY":359.4916,"EPHEMERIS_TYPE":0,"CLASSIFICATION_TYPE":"U","NORAD_CAT_ID":26464,"ELEMENT_SET_NO":999,"REV_AT_EPOCH":1976,"BSTAR":0,"MEAN_MOTION_DOT":4.776e-5,"MEAN_MOTION_DDOT":0},{"OBJECT_NAME":"ODIN","OBJECT_ID":"2001-007A","EPOCH":"2026-03-06T12:23:43.855584","MEAN_MOTION":15.58268209,"ECCENTRICITY":0.00043526,"INCLINATION":97.4078,"RA_OF_ASC_NODE":101.4322,"ARG_OF_PERICENTER":148.2779,"MEAN_ANOMALY":211.874,"EPHEMERIS_TYPE":0,"CLASSIFICATION_TYPE":"U","NORAD_CAT_ID":26702,"ELEMENT_SET_NO":999,"REV_AT_EPOCH":37334,"BSTAR":0.00072978244,"MEAN_MOTION_DOT":0.00055418,"MEAN_MOTION_DDOT":0},{"OBJECT_NAME":"TIMED","OBJECT_ID":"2001-055B","EPOCH":"2026-03-06T08:48:30.680064","MEAN_MOTION":14.95010007,"ECCENTRICITY":0.00030074,"INCLINATION":74.066,"RA_OF_ASC_NODE":82.0081,"ARG_OF_PERICENTER":279.582,"MEAN_ANOMALY":80.5025,"EPHEMERIS_TYPE":0,"CLASSIFICATION_TYPE":"U","NORAD_CAT_ID":26998,"ELEMENT_SET_NO":999,"REV_AT_EPOCH":31545,"BSTAR":0.00017752497,"MEAN_MOTION_DOT":1.903e-5,"MEAN_MOTION_DDOT":0},{"OBJECT_NAME":"CORIOLIS","OBJECT_ID":"2003-001A","EPOCH":"2026-03-06T10:59:46.760640","MEAN_MOTION":14.19911379,"ECCENTRICITY":0.00146426,"INCLINATION":98.7162,"RA_OF_ASC_NODE":73.9002,"ARG_OF_PERICENTER":145.3692,"MEAN_ANOMALY":214.8441,"EPHEMERIS_TYPE":0,"CLASSIFICATION_TYPE":"U","NORAD_CAT_ID":27640,"ELEMENT_SET_NO":999,"REV_AT_EPOCH":19964,"BSTAR":0.00011237857,"MEAN_MOTION_DOT":1.95e-6,"MEAN_MOTION_DDOT":0},{"OBJECT_NAME":"SORCE","OBJECT_ID":"2003-004A","EPOCH":"2026-03-06T13:50:01.185504","MEAN_MOTION":15.03070095,"ECCENTRICITY":0.00162407,"INCLINATION":39.9901,"RA_OF_ASC_NODE":126.846,"ARG_OF_PERICENTER":31.2906,"MEAN_ANOMALY":328.8852,"EPHEMERIS_TYPE":0,"CLASSIFICATION_TYPE":"U","NORAD_CAT_ID":27651,"ELEMENT_SET_NO":999,"REV_AT_EPOCH":25645,"BSTAR":0.00034659983,"MEAN_MOTION_DOT":4.619e-5,"MEAN_MOTION_DDOT":0},{"OBJECT_NAME":"MOST","OBJECT_ID":"2003-031D","EPOCH":"2026-03-06T10:21:00.779328","MEAN_MOTION":14.21298201,"ECCENTRICITY":0.00097589,"INCLINATION":98.7084,"RA_OF_ASC_NODE":74.5777,"ARG_OF_PERICENTER":182.9417,"MEAN_ANOMALY":177.1704,"EPHEMERIS_TYPE":0,"CLASSIFICATION_TYPE":"U","NORAD_CAT_ID":27843,"ELEMENT_SET_NO":999,"REV_AT_EPOCH":17611,"BSTAR":7.2810694e-5,"MEAN_MOTION_DOT":1.15e-6,"MEAN_MOTION_DDOT":0},{"OBJECT_NAME":"SCISAT 1","OBJECT_ID":"2003-036A","EPOCH":"2026-03-06T20:18:56.499264","MEAN_MOTION":14.81305656,"ECCENTRICITY":0.0005859,"INCLINATION":73.932,"RA_OF_ASC_NODE":14.6606,"ARG_OF_PERICENTER":106.3746,"MEAN_ANOMALY":253.8075,"EPHEMERIS_TYPE":0,"CLASSIFICATION_TYPE":"U","NORAD_CAT_ID":27858,"ELEMENT_SET_NO":999,"REV_AT_EPOCH":21629,"BSTAR":0.00017449,"MEAN_MOTION_DOT":1.326e-5,"MEAN_MOTION_DDOT":0},{"OBJECT_NAME":"SWIFT","OBJECT_ID":"2004-047A","EPOCH":"2026-03-06T19:03:28.574208","MEAN_MOTION":15.58982582,"ECCENTRICITY":0.0003496,"INCLINATION":20.5529,"RA_OF_ASC_NODE":249.2327,"ARG_OF_PERICENTER":355.9744,"MEAN_ANOMALY":4.0672,"EPHEMERIS_TYPE":0,"CLASSIFICATION_TYPE":"U","NORAD_CAT_ID":28485,"ELEMENT_SET_NO":999,"REV_AT_EPOCH":17081,"BSTAR":0.000598,"MEAN_MOTION_DOT":0.00049609,"MEAN_MOTION_DDOT":0},{"OBJECT_NAME":"HINODE (SOLAR-B)","OBJECT_ID":"2006-041A","EPOCH":"2026-03-06T12:07:39.327456","MEAN_MOTION":14.68468203,"ECCENTRICITY":0.00162043,"INCLINATION":98.0626,"RA_OF_ASC_NODE":83.1473,"ARG_OF_PERICENTER":252.469,"MEAN_ANOMALY":107.4745,"EPHEMERIS_TYPE":0,"CLASSIFICATION_TYPE":"U","NORAD_CAT_ID":29479,"ELEMENT_SET_NO":999,"REV_AT_EPOCH":3980,"BSTAR":0.00017724955,"MEAN_MOTION_DOT":9.79e-6,"MEAN_MOTION_DDOT":0},{"OBJECT_NAME":"SHIJIAN-6 02A (SJ-6 02A)","OBJECT_ID":"2006-046A","EPOCH":"2026-03-06T20:56:32.383392","MEAN_MOTION":15.15640968,"ECCENTRICITY":0.0004569,"INCLINATION":97.6497,"RA_OF_ASC_NODE":106.1942,"ARG_OF_PERICENTER":119.9835,"MEAN_ANOMALY":240.1851,"EPHEMERIS_TYPE":0,"CLASSIFICATION_TYPE":"U","NORAD_CAT_ID":29505,"ELEMENT_SET_NO":999,"REV_AT_EPOCH":5676,"BSTAR":0.00020482,"MEAN_MOTION_DOT":3.826e-5,"MEAN_MOTION_DDOT":0}]
